{
  "type": "FeatureCollection",
  "features": [
    {
      "type": "Feature",
      "properties": {
        "norad_id": 31674,
        "name": "FENGYUN 1C DEB",
        "group": "fengyun-1c-debris",
        "lat": 81.02371554061278,
        "lon": -48.88322946358195,
        "alt_km": 728.2382335493166,
        "timestamp": "2025-12-24T07:45:06.483525+00:00",
        "meta_object_name": "FENGYUN 1C DEB",
        "meta_object_id": "1999-025CCG",
        "meta_epoch": "2025-12-21T19:48:19.306080",
        "meta_mean_motion": 14.52041025,
        "meta_eccentricity": 0.00251906,
        "meta_inclination": 98.9259,
        "meta_ra_of_asc_node": 32.7017,
        "meta_arg_of_pericenter": 257.1305,
        "meta_mean_anomaly": 102.7074,
        "meta_ephemeris_type": 0,
        "meta_classification_type": "U",
        "meta_norad_cat_id": 31674,
        "meta_element_set_no": 999,
        "meta_rev_at_epoch": 64746,
        "meta_bstar": 0.0020848751,
        "meta_mean_motion_dot": 8.422e-05,
        "meta_mean_motion_ddot": 0,
        "tle_line1": "1 31674U 99025CCG 25355.82522345  .00008422  00000+0  20849-2 0  9997",
        "tle_line2": "2 31674  98.9259  32.7017 0025190 257.1305 102.7074 14.52041025647467"
      },
      "geometry": {
        "type": "Point",
        "coordinates": [
          -48.88322946358195,
          81.02371554061278
        ]
      }
    },
    {
      "type": "Feature",
      "properties": {
        "norad_id": 31678,
        "name": "FENGYUN 1C DEB",
        "group": "fengyun-1c-debris",
        "lat": 74.52357796905221,
        "lon": -37.89054098024825,
        "alt_km": 766.1982669603922,
        "timestamp": "2025-12-24T07:45:06.483535+00:00",
        "meta_object_name": "FENGYUN 1C DEB",
        "meta_object_id": "1999-025CCL",
        "meta_epoch": "2025-12-23T13:06:58.040640",
        "meta_mean_motion": 14.53282145,
        "meta_eccentricity": 0.02581676,
        "meta_inclination": 98.7997,
        "meta_ra_of_asc_node": 107.275,
        "meta_arg_of_pericenter": 355.1172,
        "meta_mean_anomaly": 4.751,
        "meta_ephemeris_type": 0,
        "meta_classification_type": "U",
        "meta_norad_cat_id": 31678,
        "meta_element_set_no": 999,
        "meta_rev_at_epoch": 96996,
        "meta_bstar": 0.00079415102,
        "meta_mean_motion_dot": 5.07e-05,
        "meta_mean_motion_ddot": 0,
        "tle_line1": "1 31678U 99025CCL 25357.54650510  .00005070  00000+0  79415-3 0  9998",
        "tle_line2": "2 31678  98.7997 107.2750 0258167 355.1172   4.7510 14.53282145969962"
      },
      "geometry": {
        "type": "Point",
        "coordinates": [
          -37.89054098024825,
          74.52357796905221
        ]
      }
    },
    {
      "type": "Feature",
      "properties": {
        "norad_id": 31680,
        "name": "FENGYUN 1C DEB",
        "group": "fengyun-1c-debris",
        "lat": 50.4873669379736,
        "lon": -58.41399759812543,
        "alt_km": 515.0930135332201,
        "timestamp": "2025-12-24T07:45:06.483545+00:00",
        "meta_object_name": "FENGYUN 1C DEB",
        "meta_object_id": "1999-025CCN",
        "meta_epoch": "2025-12-19T13:46:38.260416",
        "meta_mean_motion": 15.24517341,
        "meta_eccentricity": 0.0075074,
        "meta_inclination": 99.8378,
        "meta_ra_of_asc_node": 103.2151,
        "meta_arg_of_pericenter": 267.596,
        "meta_mean_anomaly": 91.6672,
        "meta_ephemeris_type": 0,
        "meta_classification_type": "U",
        "meta_norad_cat_id": 31680,
        "meta_element_set_no": 999,
        "meta_rev_at_epoch": 276,
        "meta_bstar": 0.00092506,
        "meta_mean_motion_dot": 0.00024601,
        "meta_mean_motion_ddot": 0,
        "tle_line1": "1 31680U 99025CCN 25353.57405394  .00024601  00000+0  92506-3 0  9995",
        "tle_line2": "2 31680  99.8378 103.2151 0075074 267.5960  91.6672 15.24517341  2764"
      },
      "geometry": {
        "type": "Point",
        "coordinates": [
          -58.41399759812543,
          50.4873669379736
        ]
      }
    },
    {
      "type": "Feature",
      "properties": {
        "norad_id": 31685,
        "name": "FENGYUN 1C DEB",
        "group": "fengyun-1c-debris",
        "lat": -18.453436086466343,
        "lon": -160.74530881723595,
        "alt_km": 853.6938232731482,
        "timestamp": "2025-12-24T07:45:06.483555+00:00",
        "meta_object_name": "FENGYUN 1C DEB",
        "meta_object_id": "1999-025CCT",
        "meta_epoch": "2025-12-23T18:53:17.762496",
        "meta_mean_motion": 14.09662143,
        "meta_eccentricity": 0.00164005,
        "meta_inclination": 98.73,
        "meta_ra_of_asc_node": 21.674,
        "meta_arg_of_pericenter": 193.5583,
        "meta_mean_anomaly": 166.5149,
        "meta_ephemeris_type": 0,
        "meta_classification_type": "U",
        "meta_norad_cat_id": 31685,
        "meta_element_set_no": 999,
        "meta_rev_at_epoch": 95245,
        "meta_bstar": 0.00013928838,
        "meta_mean_motion_dot": 2.02e-06,
        "meta_mean_motion_ddot": 0,
        "tle_line1": "1 31685U 99025CCT 25357.78701114  .00000202  00000+0  13929-3 0  9999",
        "tle_line2": "2 31685  98.7300  21.6740 0016400 193.5583 166.5149 14.09662143952450"
      },
      "geometry": {
        "type": "Point",
        "coordinates": [
          -160.74530881723595,
          -18.453436086466343
        ]
      }
    },
    {
      "type": "Feature",
      "properties": {
        "norad_id": 31686,
        "name": "FENGYUN 1C DEB",
        "group": "fengyun-1c-debris",
        "lat": 48.78311862311667,
        "lon": 60.537774460128176,
        "alt_km": 450.7941549501584,
        "timestamp": "2025-12-24T07:45:06.483565+00:00",
        "meta_object_name": "FENGYUN 1C DEB",
        "meta_object_id": "1999-025CCU",
        "meta_epoch": "2025-12-21T22:27:00.303552",
        "meta_mean_motion": 14.7223699,
        "meta_eccentricity": 0.02829038,
        "meta_inclination": 98.1511,
        "meta_ra_of_asc_node": 67.5581,
        "meta_arg_of_pericenter": 60.2602,
        "meta_mean_anomaly": 302.6434,
        "meta_ephemeris_type": 0,
        "meta_classification_type": "U",
        "meta_norad_cat_id": 31686,
        "meta_element_set_no": 999,
        "meta_rev_at_epoch": 97954,
        "meta_bstar": 0.00063583976,
        "meta_mean_motion_dot": 7.541e-05,
        "meta_mean_motion_ddot": 0,
        "tle_line1": "1 31686U 99025CCU 25355.93542018  .00007541  00000+0  63584-3 0  9996",
        "tle_line2": "2 31686  98.1511  67.5581 0282903  60.2602 302.6434 14.72236990979542"
      },
      "geometry": {
        "type": "Point",
        "coordinates": [
          60.537774460128176,
          48.78311862311667
        ]
      }
    },
    {
      "type": "Feature",
      "properties": {
        "norad_id": 31688,
        "name": "FENGYUN 1C DEB",
        "group": "fengyun-1c-debris",
        "lat": 17.436315809740684,
        "lon": 49.36630306367769,
        "alt_km": 887.363392886542,
        "timestamp": "2025-12-24T07:45:06.483575+00:00",
        "meta_object_name": "FENGYUN 1C DEB",
        "meta_object_id": "1999-025CCW",
        "meta_epoch": "2025-12-21T09:27:32.858784",
        "meta_mean_motion": 14.02315643,
        "meta_eccentricity": 0.00756658,
        "meta_inclination": 98.9626,
        "meta_ra_of_asc_node": 49.3273,
        "meta_arg_of_pericenter": 117.5868,
        "meta_mean_anomaly": 243.3009,
        "meta_ephemeris_type": 0,
        "meta_classification_type": "U",
        "meta_norad_cat_id": 31688,
        "meta_element_set_no": 999,
        "meta_rev_at_epoch": 95399,
        "meta_bstar": 2.1228335e-05,
        "meta_mean_motion_dot": -1e-07,
        "meta_mean_motion_ddot": 0,
        "tle_line1": "1 31688U 99025CCW 25355.39413031 -.00000010  00000+0  21228-4 0  9995",
        "tle_line2": "2 31688  98.9626  49.3273 0075665 117.5868 243.3009 14.02315643953996"
      },
      "geometry": {
        "type": "Point",
        "coordinates": [
          49.36630306367769,
          17.436315809740684
        ]
      }
    },
    {
      "type": "Feature",
      "properties": {
        "norad_id": 31691,
        "name": "FENGYUN 1C DEB",
        "group": "fengyun-1c-debris",
        "lat": 59.64722863719869,
        "lon": -79.59922848636998,
        "alt_km": 796.2779495890163,
        "timestamp": "2025-12-24T07:45:06.483585+00:00",
        "meta_object_name": "FENGYUN 1C DEB",
        "meta_object_id": "1999-025CCZ",
        "meta_epoch": "2025-12-23T12:40:11.821440",
        "meta_mean_motion": 14.26247471,
        "meta_eccentricity": 0.00620709,
        "meta_inclination": 98.8808,
        "meta_ra_of_asc_node": 84.109,
        "meta_arg_of_pericenter": 208.9481,
        "meta_mean_anomaly": 150.8251,
        "meta_ephemeris_type": 0,
        "meta_classification_type": "U",
        "meta_norad_cat_id": 31691,
        "meta_element_set_no": 999,
        "meta_rev_at_epoch": 64265,
        "meta_bstar": 0.0023300416,
        "meta_mean_motion_dot": 5.659e-05,
        "meta_mean_motion_ddot": 0,
        "tle_line1": "1 31691U 99025CCZ 25357.52791460  .00005659  00000+0  23300-2 0  9995",
        "tle_line2": "2 31691  98.8808  84.1090 0062070 208.9481 150.8251 14.26247471642655"
      },
      "geometry": {
        "type": "Point",
        "coordinates": [
          -79.59922848636998,
          59.64722863719869
        ]
      }
    }
  ]
}